[
  {
    "name": "KUIPER-00272",
    "noradId": "68588",
    "line1": "1 68588U 26072R   26187.03448778 -.00000276  00000+0 -71787-5 0  9998",
    "line2": "2 68588  51.8989 109.7956 0000996  84.2109 275.8967 14.79931845 13944"
  },
  {
    "name": "KUIPER-00285",
    "noradId": "68589",
    "line1": "1 68589U 26072S   26187.25004630  .00000994  00000+0  13638-3 0  9992",
    "line2": "2 68589  51.8992  89.0777 0006143  58.1212 178.9594 14.86906554  4198"
  },
  {
    "name": "KUIPER-00286",
    "noradId": "68590",
    "line1": "1 68590U 26072T   26187.25004630 -.01692647  00000+0 -13596+0 0  9998",
    "line2": "2 68590  51.8891  86.6794 0003865  44.9837  76.8257 15.03009653  5214"
  },
  {
    "name": "KUIPER-00289",
    "noradId": "68591",
    "line1": "1 68591U 26072U   26187.11820071  .00003014  00000+0  42423-3 0  9995",
    "line2": "2 68591  51.8979  94.4433 0000672 122.5312 237.5715 14.79930070 14160"
  },
  {
    "name": "KUIPER-00290",
    "noradId": "68592",
    "line1": "1 68592U 26072V   26187.25004630  .00000425  00000+0  78203-4 0  9995",
    "line2": "2 68592  51.9003  92.3347 0008667  99.7289 123.1445 14.83913112  3522"
  },
  {
    "name": "KUIPER-00293",
    "noradId": "68593",
    "line1": "1 68593U 26072W   26186.97235319  .00001737  00000+0  25683-3 0  9994",
    "line2": "2 68593  51.8978 105.0724 0003158 106.6168 253.5141 14.79934798 14002"
  },
  {
    "name": "KUIPER-00294",
    "noradId": "68594",
    "line1": "1 68594U 26072X   26187.25004630 -.00007260  00000+0 -87243-3 0  9996",
    "line2": "2 68594  51.8983  91.3443 0002573  67.9332 268.7140 14.82316607  5099"
  },
  {
    "name": "KUIPER-00296",
    "noradId": "68595",
    "line1": "1 68595U 26072Y   26186.98967302  .00035859  00000+0  92487-3 0  9999",
    "line2": "2 68595  51.8701  85.9189 0009506  89.6795 270.5281 15.38792626 14279"
  },
  {
    "name": "KUIPER-00297",
    "noradId": "68596",
    "line1": "1 68596U 26072Z   26187.02950108  .00002739  00000+0  42139-3 0  9992",
    "line2": "2 68596  51.8987 104.3521 0001191 118.3583 241.7498 14.76352620 14029"
  },
  {
    "name": "KUIPER-00300",
    "noradId": "68597",
    "line1": "1 68597U 26072AA  26187.15746581  .00002504  00000+0  38693-3 0  9995",
    "line2": "2 68597  51.9017 100.8535 0001857 110.5405 249.5756 14.76468967 14088"
  },
  {
    "name": "KUIPER-00301",
    "noradId": "68598",
    "line1": "1 68598U 26072AB  26187.12233911  .00045644  00000+0  11812-2 0  9996",
    "line2": "2 68598  51.8652  85.2645 0009688  93.1291 267.0804 15.38576631 14299"
  },
  {
    "name": "KUIPER-00304",
    "noradId": "68599",
    "line1": "1 68599U 26072AC  26186.94023637  .00036541  00000+0  95416-3 0  9997",
    "line2": "2 68599  51.8658  86.3033 0011770  97.6713 262.5611 15.38381224 14267"
  },
  {
    "name": "KUIPER-00317",
    "noradId": "68600",
    "line1": "1 68600U 26072AD  26187.25004630 -.00006558  00000+0 -82970-3 0  9995",
    "line2": "2 68600  51.8973  91.3712 0002140 118.5125  29.8786 14.80047832  4762"
  },
  {
    "name": "KUIPER-00320",
    "noradId": "68601",
    "line1": "1 68601U 26072AE  26186.94663970  .00001568  00000+0  23464-3 0  9996",
    "line2": "2 68601  51.9013  97.6968 0000595  98.6280 261.4750 14.79929717 14106"
  },
  {
    "name": "KUIPER-00299",
    "noradId": "68864",
    "line1": "1 68864U 26095A   26187.15204099  .00001997  00000+0  31488-3 0  9990",
    "line2": "2 68864  51.8980 165.1439 0001830 228.3061 131.7744 14.76464155 10447"
  },
  {
    "name": "KUIPER-00353",
    "noradId": "68865",
    "line1": "1 68865U 26095B   26187.25004630 -.01838751  00000+0 -15137+0 0  9999",
    "line2": "2 68865  51.8966 152.1041 0001950  24.3195  82.8441 15.02401332  5242"
  }
]