{"fetched_at":"2026-07-06T18:35:12.836Z","source":"https://celestrak.org/NORAD/elements/gp.php?GROUP=kuiper&FORMAT=JSON","constellation":"kuiper","records":[{"OBJECT_NAME":"KUIPER-00272","OBJECT_ID":"2026-072R","EPOCH":"2026-07-06T00:49:39.744192","CLASSIFICATION_TYPE":"U","MEAN_MOTION":14.79931845,"ECCENTRICITY":0.00009965,"INCLINATION":51.8989,"RA_OF_ASC_NODE":109.7956,"ARG_OF_PERICENTER":84.2109,"MEAN_ANOMALY":275.8967,"EPHEMERIS_TYPE":0,"NORAD_CAT_ID":68588,"ELEMENT_SET_NO":999,"REV_AT_EPOCH":1394,"BSTAR":-0.000007178708,"MEAN_MOTION_DOT":-0.00000276,"MEAN_MOTION_DDOT":0},{"OBJECT_NAME":"KUIPER-00285","OBJECT_ID":"2026-072S","EPOCH":"2026-07-06T06:00:04.000320","CLASSIFICATION_TYPE":"U","MEAN_MOTION":14.86906554,"ECCENTRICITY":0.00061435,"INCLINATION":51.8992,"RA_OF_ASC_NODE":89.0777,"ARG_OF_PERICENTER":58.1212,"MEAN_ANOMALY":178.9594,"EPHEMERIS_TYPE":0,"NORAD_CAT_ID":68589,"ELEMENT_SET_NO":999,"REV_AT_EPOCH":419,"BSTAR":0.00013638047,"MEAN_MOTION_DOT":0.00000994,"MEAN_MOTION_DDOT":0},{"OBJECT_NAME":"KUIPER-00286","OBJECT_ID":"2026-072T","EPOCH":"2026-07-06T06:00:04.000320","CLASSIFICATION_TYPE":"U","MEAN_MOTION":15.03009653,"ECCENTRICITY":0.00038651,"INCLINATION":51.8891,"RA_OF_ASC_NODE":86.6794,"ARG_OF_PERICENTER":44.9837,"MEAN_ANOMALY":76.8257,"EPHEMERIS_TYPE":0,"NORAD_CAT_ID":68590,"ELEMENT_SET_NO":999,"REV_AT_EPOCH":521,"BSTAR":-0.1359591,"MEAN_MOTION_DOT":-0.01692647,"MEAN_MOTION_DDOT":0},{"OBJECT_NAME":"KUIPER-00289","OBJECT_ID":"2026-072U","EPOCH":"2026-07-06T02:50:12.541344","CLASSIFICATION_TYPE":"U","MEAN_MOTION":14.7993007,"ECCENTRICITY":0.00006728,"INCLINATION":51.8979,"RA_OF_ASC_NODE":94.4433,"ARG_OF_PERICENTER":122.5312,"MEAN_ANOMALY":237.5715,"EPHEMERIS_TYPE":0,"NORAD_CAT_ID":68591,"ELEMENT_SET_NO":999,"REV_AT_EPOCH":1416,"BSTAR":0.00042422932,"MEAN_MOTION_DOT":0.00003014,"MEAN_MOTION_DDOT":0},{"OBJECT_NAME":"KUIPER-00290","OBJECT_ID":"2026-072V","EPOCH":"2026-07-06T06:00:04.000320","CLASSIFICATION_TYPE":"U","MEAN_MOTION":14.83913112,"ECCENTRICITY":0.00086672,"INCLINATION":51.9003,"RA_OF_ASC_NODE":92.3347,"ARG_OF_PERICENTER":99.7289,"MEAN_ANOMALY":123.1445,"EPHEMERIS_TYPE":0,"NORAD_CAT_ID":68592,"ELEMENT_SET_NO":999,"REV_AT_EPOCH":352,"BSTAR":0.00007820339,"MEAN_MOTION_DOT":0.00000425,"MEAN_MOTION_DDOT":0},{"OBJECT_NAME":"KUIPER-00293","OBJECT_ID":"2026-072W","EPOCH":"2026-07-05T23:20:11.315616","CLASSIFICATION_TYPE":"U","MEAN_MOTION":14.79934798,"ECCENTRICITY":0.00031581,"INCLINATION":51.8978,"RA_OF_ASC_NODE":105.0724,"ARG_OF_PERICENTER":106.6168,"MEAN_ANOMALY":253.5141,"EPHEMERIS_TYPE":0,"NORAD_CAT_ID":68593,"ELEMENT_SET_NO":999,"REV_AT_EPOCH":1400,"BSTAR":0.00025682577,"MEAN_MOTION_DOT":0.00001737,"MEAN_MOTION_DDOT":0},{"OBJECT_NAME":"KUIPER-00294","OBJECT_ID":"2026-072X","EPOCH":"2026-07-06T06:00:04.000320","CLASSIFICATION_TYPE":"U","MEAN_MOTION":14.82316607,"ECCENTRICITY":0.00025731,"INCLINATION":51.8983,"RA_OF_ASC_NODE":91.3443,"ARG_OF_PERICENTER":67.9332,"MEAN_ANOMALY":268.714,"EPHEMERIS_TYPE":0,"NORAD_CAT_ID":68594,"ELEMENT_SET_NO":999,"REV_AT_EPOCH":509,"BSTAR":-0.00087242981,"MEAN_MOTION_DOT":-0.0000726,"MEAN_MOTION_DDOT":0},{"OBJECT_NAME":"KUIPER-00296","OBJECT_ID":"2026-072Y","EPOCH":"2026-07-05T23:45:07.748928","CLASSIFICATION_TYPE":"U","MEAN_MOTION":15.38792626,"ECCENTRICITY":0.00095062,"INCLINATION":51.8701,"RA_OF_ASC_NODE":85.9189,"ARG_OF_PERICENTER":89.6795,"MEAN_ANOMALY":270.5281,"EPHEMERIS_TYPE":0,"NORAD_CAT_ID":68595,"ELEMENT_SET_NO":999,"REV_AT_EPOCH":1427,"BSTAR":0.00092486857,"MEAN_MOTION_DOT":0.00035859,"MEAN_MOTION_DDOT":0},{"OBJECT_NAME":"KUIPER-00297","OBJECT_ID":"2026-072Z","EPOCH":"2026-07-06T00:42:28.893312","CLASSIFICATION_TYPE":"U","MEAN_MOTION":14.7635262,"ECCENTRICITY":0.00011912,"INCLINATION":51.8987,"RA_OF_ASC_NODE":104.3521,"ARG_OF_PERICENTER":118.3583,"MEAN_ANOMALY":241.7498,"EPHEMERIS_TYPE":0,"NORAD_CAT_ID":68596,"ELEMENT_SET_NO":999,"REV_AT_EPOCH":1402,"BSTAR":0.00042139242,"MEAN_MOTION_DOT":0.00002739,"MEAN_MOTION_DDOT":0},{"OBJECT_NAME":"KUIPER-00300","OBJECT_ID":"2026-072AA","EPOCH":"2026-07-06T03:46:45.045984","CLASSIFICATION_TYPE":"U","MEAN_MOTION":14.76468967,"ECCENTRICITY":0.00018577,"INCLINATION":51.9017,"RA_OF_ASC_NODE":100.8535,"ARG_OF_PERICENTER":110.5405,"MEAN_ANOMALY":249.5756,"EPHEMERIS_TYPE":0,"NORAD_CAT_ID":68597,"ELEMENT_SET_NO":999,"REV_AT_EPOCH":1408,"BSTAR":0.00038692852,"MEAN_MOTION_DOT":0.00002504,"MEAN_MOTION_DDOT":0},{"OBJECT_NAME":"KUIPER-00301","OBJECT_ID":"2026-072AB","EPOCH":"2026-07-06T02:56:10.099104","CLASSIFICATION_TYPE":"U","MEAN_MOTION":15.38576631,"ECCENTRICITY":0.00096887,"INCLINATION":51.8652,"RA_OF_ASC_NODE":85.2645,"ARG_OF_PERICENTER":93.1291,"MEAN_ANOMALY":267.0804,"EPHEMERIS_TYPE":0,"NORAD_CAT_ID":68598,"ELEMENT_SET_NO":999,"REV_AT_EPOCH":1429,"BSTAR":0.001181177,"MEAN_MOTION_DOT":0.00045644,"MEAN_MOTION_DDOT":0},{"OBJECT_NAME":"KUIPER-00304","OBJECT_ID":"2026-072AC","EPOCH":"2026-07-05T22:33:56.422368","CLASSIFICATION_TYPE":"U","MEAN_MOTION":15.38381224,"ECCENTRICITY":0.00117706,"INCLINATION":51.8658,"RA_OF_ASC_NODE":86.3033,"ARG_OF_PERICENTER":97.6713,"MEAN_ANOMALY":262.5611,"EPHEMERIS_TYPE":0,"NORAD_CAT_ID":68599,"ELEMENT_SET_NO":999,"REV_AT_EPOCH":1426,"BSTAR":0.00095415516,"MEAN_MOTION_DOT":0.00036541,"MEAN_MOTION_DDOT":0},{"OBJECT_NAME":"KUIPER-00317","OBJECT_ID":"2026-072AD","EPOCH":"2026-07-06T06:00:04.000320","CLASSIFICATION_TYPE":"U","MEAN_MOTION":14.80047832,"ECCENTRICITY":0.00021403,"INCLINATION":51.8973,"RA_OF_ASC_NODE":91.3712,"ARG_OF_PERICENTER":118.5125,"MEAN_ANOMALY":29.8786,"EPHEMERIS_TYPE":0,"NORAD_CAT_ID":68600,"ELEMENT_SET_NO":999,"REV_AT_EPOCH":476,"BSTAR":-0.00082970287,"MEAN_MOTION_DOT":-0.00006558,"MEAN_MOTION_DDOT":0},{"OBJECT_NAME":"KUIPER-00320","OBJECT_ID":"2026-072AE","EPOCH":"2026-07-05T22:43:09.670080","CLASSIFICATION_TYPE":"U","MEAN_MOTION":14.79929717,"ECCENTRICITY":0.00005951,"INCLINATION":51.9013,"RA_OF_ASC_NODE":97.6968,"ARG_OF_PERICENTER":98.628,"MEAN_ANOMALY":261.475,"EPHEMERIS_TYPE":0,"NORAD_CAT_ID":68601,"ELEMENT_SET_NO":999,"REV_AT_EPOCH":1410,"BSTAR":0.00023464191,"MEAN_MOTION_DOT":0.00001568,"MEAN_MOTION_DDOT":0},{"OBJECT_NAME":"KUIPER-00299","OBJECT_ID":"2026-095A","EPOCH":"2026-07-06T03:38:56.341536","CLASSIFICATION_TYPE":"U","MEAN_MOTION":14.76464155,"ECCENTRICITY":0.00018309,"INCLINATION":51.898,"RA_OF_ASC_NODE":165.1439,"ARG_OF_PERICENTER":228.3061,"MEAN_ANOMALY":131.7744,"EPHEMERIS_TYPE":0,"NORAD_CAT_ID":68864,"ELEMENT_SET_NO":999,"REV_AT_EPOCH":1044,"BSTAR":0.00031488167,"MEAN_MOTION_DOT":0.00001997,"MEAN_MOTION_DDOT":0},{"OBJECT_NAME":"KUIPER-00353","OBJECT_ID":"2026-095B","EPOCH":"2026-07-06T06:00:04.000320","CLASSIFICATION_TYPE":"U","MEAN_MOTION":15.02401332,"ECCENTRICITY":0.00019502,"INCLINATION":51.8966,"RA_OF_ASC_NODE":152.1041,"ARG_OF_PERICENTER":24.3195,"MEAN_ANOMALY":82.8441,"EPHEMERIS_TYPE":0,"NORAD_CAT_ID":68865,"ELEMENT_SET_NO":999,"REV_AT_EPOCH":524,"BSTAR":-0.15137368,"MEAN_MOTION_DOT":-0.01838751,"MEAN_MOTION_DDOT":0}]}
